{"type":"FeatureCollection","_frames":{"nisene":{"lon":-121.8798,"lat":37.02963,"radiusM":6172},"scmts":{"lon":-122.08852,"lat":37.02882,"radiusM":9830},"elkhorn":{"lon":-121.75581,"lat":36.82466,"radiusM":4884},"bigsur":{"lon":-121.89331,"lat":36.49159,"radiusM":5626},"santalucia":{"lon":-121.81135,"lat":36.47369,"radiusM":9329}},"_provenance":{"sources":["OpenStreetMap protected-area relations via polygons.openstreetmap.fr \u2014 ODbL 1.0, (c) OpenStreetMap contributors","California Conservation Easement Database (CCED), GreenInfo Network, served by gis.cnra.ca.gov \u2014 Santa Lucia Preserve only"],"generalised":"topology-preserving simplification (GEOS) at 45 m, or a per-feature override where that is coarser than the feature itself (see `simplify` in tools/build_boundaries.py); rings under 10% of their park's largest dropped; interior holes dropped; coordinates rounded to 5 dp (~1 m)","what_this_costs":"These are drawn extents, not legal descriptions. Outlying parcels and interior exclusions are omitted for legibility; per-park figures are in `audit` below.","audit":[{"park":"The Forest of Nisene Marks","rings_kept":1,"outlying_rings_dropped":7,"outlying_acres_dropped":34,"interior_exclusions_dropped":0,"interior_acres_dropped":0,"acres_drawn":9989,"acres_published":10223},{"park":"Wilder Ranch State Park","rings_kept":3,"outlying_rings_dropped":6,"outlying_acres_dropped":303,"interior_exclusions_dropped":0,"interior_acres_dropped":0,"acres_drawn":6888,"acres_published":7000},{"park":"Henry Cowell Redwoods","rings_kept":2,"outlying_rings_dropped":1,"outlying_acres_dropped":1,"interior_exclusions_dropped":0,"interior_acres_dropped":0,"acres_drawn":4676,"acres_published":4623},{"park":"Elkhorn Slough Ecological Reserve","rings_kept":2,"outlying_rings_dropped":5,"outlying_acres_dropped":168,"interior_exclusions_dropped":0,"interior_acres_dropped":0,"acres_drawn":1599,"acres_published":1700},{"park":"Elkhorn Slough (tidal channel)","rings_kept":1,"outlying_rings_dropped":0,"outlying_acres_dropped":0,"interior_exclusions_dropped":6,"interior_acres_dropped":15,"acres_drawn":696,"acres_published":null},{"park":"Palo Corona Regional Park","rings_kept":1,"outlying_rings_dropped":3,"outlying_acres_dropped":281,"interior_exclusions_dropped":0,"interior_acres_dropped":0,"acres_drawn":4607,"acres_published":4500},{"park":"Santa Lucia Preserve","rings_kept":1,"outlying_rings_dropped":458,"outlying_acres_dropped":817,"interior_exclusions_dropped":3639,"interior_acres_dropped":3764,"acres_drawn":18055,"acres_published":15078}],"built_by":"tools/build_boundaries.py"},"features":[{"type":"Feature","properties":{"key":"nisene","name":"The Forest of Nisene Marks","step":"nisene","kind":"land","wall":true,"source":"OSM relation 10558949","osmRelation":10558949},"geometry":{"type":"MultiPolygon","coordinates":[[[[-121.90585,37.00551],[-121.90594,37.00326],[-121.91047,37.00379],[-121.91115,37.00187],[-121.91199,37.0017],[-121.91133,37.00055],[-121.90869,36.99986],[-121.91038,36.99852],[-121.90577,36.99852],[-121.90616,36.99765],[-121.9054,36.99497],[-121.90649,36.99374],[-121.90691,36.99161],[-121.90352,36.9835],[-121.90486,36.98235],[-121.90415,36.98161],[-121.90478,36.98034],[-121.90596,36.9806],[-121.90733,36.97873],[-121.90575,36.98116],[-121.90758,36.98602],[-121.91173,36.98751],[-121.91184,36.99206],[-121.91088,36.99204],[-121.91086,36.99337],[-121.91192,36.9934],[-121.91241,36.99487],[-121.91003,36.99443],[-121.90986,36.99504],[-121.91224,36.99525],[-121.91078,36.99706],[-121.91139,36.99773],[-121.91555,36.9975],[-121.91541,36.99854],[-121.91309,36.99994],[-121.91427,37.00303],[-121.91226,37.00716],[-121.91744,37.00887],[-121.91181,37.0113],[-121.91463,37.01323],[-121.9187,37.01384],[-121.91961,37.01482],[-121.91904,37.01653],[-121.92437,37.01548],[-121.92569,37.01331],[-121.92977,37.01638],[-121.92898,37.01719],[-121.93181,37.01805],[-121.92967,37.02088],[-121.92749,37.02634],[-121.92764,37.02774],[-121.93047,37.03226],[-121.9302,37.03403],[-121.92414,37.0358],[-121.92212,37.03962],[-121.91803,37.04206],[-121.9179,37.04373],[-121.90969,37.04465],[-121.90988,37.04779],[-121.90851,37.04904],[-121.91721,37.05284],[-121.91393,37.0583],[-121.91993,37.0606],[-121.92,37.06272],[-121.91846,37.06689],[-121.9142,37.07022],[-121.91308,37.07239],[-121.91193,37.07213],[-121.90303,37.07493],[-121.90077,37.07408],[-121.89558,37.0748],[-121.89043,37.07362],[-121.88703,37.07372],[-121.88486,37.07455],[-121.88422,37.07704],[-121.88234,37.07906],[-121.87924,37.08054],[-121.87838,37.08037],[-121.87797,37.0793],[-121.87492,37.07882],[-121.87331,37.07992],[-121.87196,37.07954],[-121.87072,37.08009],[-121.86611,37.07854],[-121.86313,37.0766],[-121.85955,37.07606],[-121.85685,37.07348],[-121.85371,37.07297],[-121.85006,37.07044],[-121.8494,37.06977],[-121.85058,37.06895],[-121.85033,37.06744],[-121.84826,37.06868],[-121.84399,37.06762],[-121.84394,37.07005],[-121.8365,37.06994],[-121.83673,37.04916],[-121.83531,37.04831],[-121.82779,37.0483],[-121.82784,37.04485],[-121.8445,37.04471],[-121.84463,37.04353],[-121.84912,37.04093],[-121.85639,37.04235],[-121.86249,37.04112],[-121.86617,37.03796],[-121.86551,37.03401],[-121.86925,37.03326],[-121.87032,37.03177],[-121.87466,37.03105],[-121.8769,37.02971],[-121.8794,37.02975],[-121.8839,37.02854],[-121.8848,37.02899],[-121.88737,37.02738],[-121.88899,37.02757],[-121.88973,37.02722],[-121.88937,37.02477],[-121.90092,37.01914],[-121.90285,37.00567],[-121.9032,37.00483],[-121.90497,37.00529],[-121.90427,37.00387],[-121.90545,37.00272],[-121.90207,37.00098],[-121.9033,36.99927],[-121.90348,36.99733],[-121.8985,36.99281],[-121.89672,36.98956],[-121.89883,36.98787],[-121.89926,36.98559],[-121.90246,36.98153],[-121.90324,36.98324],[-121.90231,36.98338],[-121.90193,36.98468],[-121.90083,36.98441],[-121.89957,36.98602],[-121.89927,36.98714],[-121.90011,36.98758],[-121.89913,36.98893],[-121.89916,36.99057],[-121.90008,36.99101],[-121.90261,36.99031],[-121.90471,36.99246],[-121.90656,36.99202],[-121.90511,36.99511],[-121.9059,36.99768],[-121.90502,37.00041],[-121.90585,37.00219],[-121.90585,37.00551]]]]}},{"type":"Feature","properties":{"key":"wilder","name":"Wilder Ranch State Park","step":"scmts","kind":"land","wall":true,"source":"OSM relation 7087507","osmRelation":7087507},"geometry":{"type":"MultiPolygon","coordinates":[[[[-122.13465,36.97537],[-122.13076,36.97287],[-122.10542,36.96146],[-122.09202,36.95997],[-122.09245,36.9588],[-122.09159,36.95626],[-122.09014,36.95574],[-122.08923,36.95689],[-122.09063,36.95979],[-122.07169,36.95781],[-122.07574,36.95435],[-122.07647,36.95177],[-122.07663,36.95271],[-122.07973,36.95334],[-122.08229,36.95185],[-122.08357,36.95222],[-122.08375,36.95299],[-122.08646,36.95238],[-122.08727,36.9547],[-122.08764,36.95378],[-122.0911,36.9546],[-122.09192,36.95377],[-122.09303,36.95473],[-122.09557,36.95537],[-122.09893,36.9554],[-122.10004,36.9548],[-122.10193,36.95614],[-122.10602,36.95615],[-122.10908,36.95777],[-122.10955,36.95874],[-122.11502,36.96266],[-122.11819,36.96218],[-122.11913,36.96262],[-122.11959,36.96216],[-122.11969,36.9636],[-122.12266,36.96594],[-122.12563,36.9658],[-122.12673,36.96429],[-122.13082,36.96713],[-122.1341,36.96777],[-122.13476,36.9669],[-122.13481,36.96849],[-122.13566,36.96798],[-122.13615,36.9684],[-122.13558,36.96973],[-122.13675,36.97151],[-122.14043,36.97501],[-122.13883,36.97787],[-122.13899,36.98005],[-122.13465,36.97537]]],[[[-122.12073,37.00756],[-122.12011,37.00801],[-122.11971,37.00713],[-122.1177,37.00666],[-122.11813,37.00525],[-122.11643,37.00406],[-122.11885,37.00218],[-122.11759,37.00171],[-122.11628,36.99997],[-122.11693,36.99935],[-122.11092,36.99417],[-122.12067,36.99383],[-122.1207,36.98053],[-122.11972,36.98407],[-122.11699,36.98627],[-122.10876,36.98938],[-122.10486,36.99405],[-122.10118,36.99572],[-122.09999,36.99727],[-122.09716,36.99897],[-122.09652,36.99963],[-122.09687,37.00099],[-122.09479,37.0022],[-122.09597,37.00396],[-122.09331,37.01482],[-122.10676,37.01342],[-122.10805,37.019],[-122.10487,37.02023],[-122.10598,37.0225],[-122.10508,37.02599],[-122.10417,37.02629],[-122.10165,37.02534],[-122.09969,37.02729],[-122.09808,37.02615],[-122.0954,37.02638],[-122.08955,37.02417],[-122.08291,37.02039],[-122.08072,37.01825],[-122.08073,37.00439],[-122.07604,37.00439],[-122.07271,36.99558],[-122.06891,36.99559],[-122.07028,36.99391],[-122.06928,36.99065],[-122.07334,36.97685],[-122.07494,36.97418],[-122.07834,36.9708],[-122.07532,36.96931],[-122.07624,36.96347],[-122.07211,36.96238],[-122.08734,36.96231],[-122.08749,36.9709],[-122.10045,36.9708],[-122.10032,36.96326],[-122.10428,36.96461],[-122.10362,36.97448],[-122.10403,36.97884],[-122.10486,36.98011],[-122.10433,36.98155],[-122.10742,36.98182],[-122.10773,36.97894],[-122.1091,36.97727],[-122.10804,36.97617],[-122.10857,36.97241],[-122.10734,36.97231],[-122.10968,36.96774],[-122.11226,36.96873],[-122.11256,36.96821],[-122.11861,36.9706],[-122.12544,36.97174],[-122.13832,36.98062],[-122.13305,36.98467],[-122.13047,36.98533],[-122.13007,36.98749],[-122.13454,36.99007],[-122.13139,36.99366],[-122.12995,36.99285],[-122.12383,37.00086],[-122.12335,37.00476],[-122.12071,37.00479],[-122.12073,37.00756]]],[[[-122.10809,37.01915],[-122.10967,37.02509],[-122.12071,37.02411],[-122.12235,37.02291],[-122.12473,37.02284],[-122.12376,37.03805],[-122.12429,37.04948],[-122.11446,37.04962],[-122.11422,37.04607],[-122.11622,37.04618],[-122.11717,37.04704],[-122.11897,37.04586],[-122.1182,37.03821],[-122.11397,37.03833],[-122.11286,37.03135],[-122.10963,37.03137],[-122.10883,37.02959],[-122.10751,37.02921],[-122.10545,37.02963],[-122.10393,37.03116],[-122.0998,37.0274],[-122.10171,37.02547],[-122.10414,37.02642],[-122.10522,37.02607],[-122.10615,37.0225],[-122.10503,37.02028],[-122.10809,37.01915]]]]}},{"type":"Feature","properties":{"key":"henrycowell","name":"Henry Cowell Redwoods","step":"scmts","kind":"land","wall":true,"source":"OSM relation 7091570","osmRelation":7091570},"geometry":{"type":"MultiPolygon","coordinates":[[[[-122.14066,37.10583],[-122.13924,37.10321],[-122.13156,37.10156],[-122.13079,37.09741],[-122.13144,37.09619],[-122.1339,37.09616],[-122.13397,37.09146],[-122.12919,37.09147],[-122.12914,37.08752],[-122.1151,37.08753],[-122.11514,37.08392],[-122.11196,37.08396],[-122.11183,37.08014],[-122.1053,37.08024],[-122.10531,37.08091],[-122.1042,37.08126],[-122.10322,37.07642],[-122.10524,37.07636],[-122.10518,37.07244],[-122.10048,37.07258],[-122.09697,37.07034],[-122.09633,37.06858],[-122.09103,37.06871],[-122.09092,37.06482],[-122.08712,37.06485],[-122.08708,37.06197],[-122.0865,37.06196],[-122.08536,37.05898],[-122.08291,37.05688],[-122.08121,37.05631],[-122.08002,37.05674],[-122.08009,37.0519],[-122.08139,37.0514],[-122.08078,37.05055],[-122.08324,37.04944],[-122.08556,37.04995],[-122.08625,37.04944],[-122.09081,37.04946],[-122.09106,37.05339],[-122.10539,37.05337],[-122.10531,37.04946],[-122.11446,37.04962],[-122.11471,37.05339],[-122.10993,37.05338],[-122.10999,37.05727],[-122.11954,37.05726],[-122.1197,37.06482],[-122.11492,37.06481],[-122.1152,37.06862],[-122.12346,37.0686],[-122.12454,37.07041],[-122.12462,37.07289],[-122.12591,37.07289],[-122.1259,37.07494],[-122.131,37.07514],[-122.12988,37.07525],[-122.12985,37.07641],[-122.13168,37.07644],[-122.13165,37.07753],[-122.13332,37.0783],[-122.13426,37.08559],[-122.13705,37.08974],[-122.13628,37.09138],[-122.13614,37.09877],[-122.13976,37.10119],[-122.14247,37.10124],[-122.14044,37.10382],[-122.14256,37.10586],[-122.14066,37.10583]]],[[[-122.07389,37.02376],[-122.0724,37.02626],[-122.06905,37.02448],[-122.05956,37.03487],[-122.06399,37.03741],[-122.06462,37.03964],[-122.06822,37.03955],[-122.06992,37.04034],[-122.07115,37.04226],[-122.07262,37.04235],[-122.07332,37.04539],[-122.07211,37.04539],[-122.07174,37.04722],[-122.0658,37.04858],[-122.0652,37.04821],[-122.06778,37.04708],[-122.07043,37.04693],[-122.07167,37.04491],[-122.07,37.04383],[-122.06427,37.04447],[-122.06298,37.04017],[-122.06012,37.03845],[-122.05892,37.03636],[-122.05193,37.04303],[-122.04548,37.04093],[-122.04213,37.0363],[-122.03447,37.01469],[-122.04305,37.01342],[-122.0527,37.00921],[-122.05967,37.00979],[-122.0669,37.01292],[-122.06996,37.01689],[-122.06974,37.02372],[-122.07389,37.02376]]]]}},{"type":"Feature","properties":{"key":"elkhorn","name":"Elkhorn Slough Ecological Reserve","step":"elkhorn","kind":"land","wall":true,"source":"OSM relation 17185995","osmRelation":17185995},"geometry":{"type":"MultiPolygon","coordinates":[[[[-121.75378,36.80479],[-121.75355,36.80155],[-121.76207,36.80363],[-121.75997,36.81364],[-121.75363,36.81456],[-121.75356,36.8129],[-121.75101,36.81309],[-121.74502,36.81619],[-121.74012,36.82953],[-121.74067,36.82959],[-121.74002,36.831],[-121.74216,36.8368],[-121.74036,36.83734],[-121.73892,36.83401],[-121.73899,36.83016],[-121.74698,36.80828],[-121.74836,36.80859],[-121.75103,36.80749],[-121.75378,36.80479]]],[[[-121.72655,36.81],[-121.73022,36.80789],[-121.72888,36.80543],[-121.72749,36.80644],[-121.72737,36.80575],[-121.72928,36.80437],[-121.73063,36.80551],[-121.73057,36.80423],[-121.72944,36.80375],[-121.73294,36.80256],[-121.7313,36.80013],[-121.73452,36.80137],[-121.736,36.80269],[-121.73637,36.80091],[-121.73749,36.8026],[-121.7415,36.80303],[-121.74156,36.8019],[-121.7458,36.80148],[-121.74528,36.80059],[-121.74737,36.80209],[-121.74829,36.802],[-121.7489,36.80305],[-121.73851,36.83086],[-121.73943,36.83641],[-121.74387,36.84096],[-121.74185,36.84299],[-121.73873,36.84096],[-121.7346,36.83943],[-121.73226,36.83689],[-121.73459,36.83037],[-121.73192,36.82737],[-121.73222,36.82551],[-121.72852,36.82407],[-121.73029,36.82138],[-121.7279,36.82073],[-121.72995,36.82008],[-121.73013,36.81921],[-121.72712,36.81624],[-121.72073,36.81507],[-121.7272,36.81424],[-121.72655,36.81]]]]}},{"type":"Feature","properties":{"key":"elkhornWater","name":"Elkhorn Slough (tidal channel)","step":"elkhorn","kind":"water","wall":false,"source":"USGS NHD PERMANENT_IDENTIFIER 137232076","nhdPermanentId":"137232076","note":"NHDArea FCODE 46006, 680 acres. Drawn as open water: the interior islands are dropped, as is the tidal marsh around the channel, which is a separate class of feature."},"geometry":{"type":"MultiPolygon","coordinates":[[[[-121.78782,36.7965],[-121.78863,36.79508],[-121.7891,36.79304],[-121.78951,36.79216],[-121.79039,36.79081],[-121.7909,36.79095],[-121.78999,36.79215],[-121.78997,36.79315],[-121.78971,36.79403],[-121.78863,36.79615],[-121.78864,36.79715],[-121.78895,36.79778],[-121.78874,36.7993],[-121.78795,36.80035],[-121.78807,36.80066],[-121.78703,36.80283],[-121.78676,36.80304],[-121.78654,36.80379],[-121.78618,36.8042],[-121.78601,36.80514],[-121.78583,36.80523],[-121.78596,36.80607],[-121.78623,36.80612],[-121.78626,36.80625],[-121.78609,36.80634],[-121.78652,36.80669],[-121.78669,36.80709],[-121.78685,36.80719],[-121.78721,36.80702],[-121.78759,36.80725],[-121.78835,36.80677],[-121.78851,36.8068],[-121.78909,36.8061],[-121.78961,36.80574],[-121.78969,36.80753],[-121.78798,36.80845],[-121.78775,36.80897],[-121.78782,36.8096],[-121.78841,36.81008],[-121.78928,36.81196],[-121.78924,36.81217],[-121.78941,36.81223],[-121.78947,36.81329],[-121.78933,36.81513],[-121.78913,36.81557],[-121.78809,36.81663],[-121.78793,36.81663],[-121.78791,36.81673],[-121.78711,36.81674],[-121.78696,36.81655],[-121.78686,36.81575],[-121.78722,36.81437],[-121.78723,36.81326],[-121.78697,36.81263],[-121.78703,36.81238],[-121.78675,36.81216],[-121.78697,36.81217],[-121.78682,36.81197],[-121.78686,36.81171],[-121.78602,36.81029],[-121.78571,36.81019],[-121.78533,36.81028],[-121.78443,36.81102],[-121.78331,36.81154],[-121.78214,36.81231],[-121.78062,36.81295],[-121.78021,36.81296],[-121.77984,36.81321],[-121.77853,36.81308],[-121.77656,36.81319],[-121.77581,36.8133],[-121.77519,36.81371],[-121.77465,36.81364],[-121.77344,36.81375],[-121.77119,36.81341],[-121.77091,36.81352],[-121.77022,36.81416],[-121.76983,36.81496],[-121.76985,36.81558],[-121.76943,36.81622],[-121.769,36.81657],[-121.7676,36.81726],[-121.76566,36.81736],[-121.76539,36.81758],[-121.76502,36.81737],[-121.76479,36.81679],[-121.76395,36.8157],[-121.76362,36.81455],[-121.76296,36.81394],[-121.76118,36.81403],[-121.75884,36.81434],[-121.75806,36.81461],[-121.75806,36.81451],[-121.75727,36.8146],[-121.75107,36.816],[-121.74998,36.8165],[-121.74971,36.8167],[-121.74972,36.81683],[-121.74994,36.81702],[-121.75083,36.81685],[-121.75148,36.81696],[-121.75211,36.81772],[-121.75256,36.81786],[-121.75201,36.81789],[-121.75135,36.81716],[-121.75077,36.8171],[-121.74985,36.81724],[-121.74937,36.81695],[-121.74793,36.81777],[-121.74667,36.81901],[-121.74537,36.82674],[-121.745,36.82792],[-121.74329,36.83026],[-121.74173,36.83176],[-121.74182,36.83188],[-121.74235,36.83189],[-121.74206,36.83235],[-121.74199,36.83297],[-121.74213,36.83341],[-121.74196,36.83365],[-121.74189,36.83422],[-121.74233,36.8348],[-121.74292,36.83497],[-121.74334,36.83463],[-121.74355,36.83415],[-121.74395,36.83397],[-121.74478,36.83382],[-121.74555,36.83398],[-121.74595,36.83366],[-121.74602,36.83347],[-121.74519,36.83273],[-121.74511,36.83245],[-121.74517,36.83226],[-121.7457,36.8318],[-121.74566,36.83146],[-121.74578,36.83153],[-121.74588,36.83183],[-121.74528,36.83237],[-121.74527,36.8325],[-121.74617,36.83338],[-121.74616,36.83362],[-121.74568,36.83421],[-121.74571,36.83481],[-121.74637,36.83535],[-121.74739,36.83566],[-121.74779,36.83602],[-121.7477,36.83641],[-121.74744,36.83634],[-121.74753,36.83604],[-121.7473,36.83581],[-121.74618,36.83546],[-121.74563,36.83501],[-121.74542,36.83476],[-121.74537,36.83426],[-121.74465,36.83407],[-121.74422,36.83412],[-121.74336,36.83516],[-121.74254,36.83527],[-121.74271,36.83724],[-121.7429,36.83777],[-121.7436,36.83848],[-121.74495,36.83916],[-121.74783,36.84004],[-121.74912,36.84019],[-121.75149,36.84023],[-121.75417,36.84179],[-121.75474,36.84282],[-121.75476,36.84356],[-121.75508,36.84437],[-121.7577,36.84539],[-121.75927,36.8467],[-121.75974,36.84784],[-121.76039,36.84891],[-121.76068,36.84976],[-121.76026,36.85296],[-121.76073,36.85498],[-121.76066,36.85599],[-121.76005,36.85707],[-121.75965,36.8573],[-121.75773,36.85789],[-121.75589,36.85755],[-121.75523,36.85714],[-121.75428,36.85608],[-121.7531,36.85536],[-121.75232,36.85557],[-121.75188,36.85606],[-121.75103,36.85644],[-121.7509,36.85686],[-121.75101,36.85755],[-121.75079,36.85786],[-121.75024,36.85824],[-121.74927,36.85851],[-121.75067,36.85782],[-121.75085,36.85755],[-121.75073,36.85685],[-121.75091,36.85628],[-121.75177,36.85574],[-121.75247,36.85488],[-121.75295,36.85468],[-121.75414,36.85469],[-121.75439,36.85485],[-121.75453,36.85504],[-121.75448,36.85581],[-121.75532,36.85667],[-121.75543,36.85642],[-121.75511,36.85479],[-121.75521,36.85475],[-121.75597,36.85516],[-121.75611,36.85552],[-121.75592,36.85602],[-121.756,36.85623],[-121.75662,36.85591],[-121.75717,36.8558],[-121.75725,36.85563],[-121.75704,36.85494],[-121.75725,36.85475],[-121.75743,36.85473],[-121.7583,36.85518],[-121.75877,36.8556],[-121.75934,36.85517],[-121.75943,36.85493],[-121.75905,36.85322],[-121.75922,36.85205],[-121.75878,36.8512],[-121.75884,36.84972],[-121.75842,36.84877],[-121.75768,36.84802],[-121.75729,36.84718],[-121.75666,36.84662],[-121.75531,36.84615],[-121.7543,36.84544],[-121.75383,36.84571],[-121.75364,36.846],[-121.75456,36.84679],[-121.75509,36.84774],[-121.7551,36.84798],[-121.75425,36.84667],[-121.75354,36.84613],[-121.75354,36.84576],[-121.75407,36.84548],[-121.75408,36.84531],[-121.75384,36.84478],[-121.75348,36.8444],[-121.75323,36.8436],[-121.75261,36.84287],[-121.75202,36.84255],[-121.75101,36.84234],[-121.74969,36.8423],[-121.74918,36.84244],[-121.7487,36.84234],[-121.74798,36.84207],[-121.74787,36.84162],[-121.74762,36.84147],[-121.74727,36.84142],[-121.74662,36.84161],[-121.74605,36.84119],[-121.74545,36.84111],[-121.74514,36.8412],[-121.74493,36.84111],[-121.74408,36.84047],[-121.74368,36.83999],[-121.74271,36.83967],[-121.74231,36.83938],[-121.74155,36.8379],[-121.74061,36.83541],[-121.74041,36.83517],[-121.74001,36.83489],[-121.73888,36.83491],[-121.73828,36.83464],[-121.73831,36.83453],[-121.73908,36.83445],[-121.73923,36.83433],[-121.73922,36.83393],[-121.73938,36.83369],[-121.73915,36.83084],[-121.73947,36.83053],[-121.7396,36.83016],[-121.74071,36.8298],[-121.74097,36.82946],[-121.74133,36.82813],[-121.742,36.82679],[-121.74225,36.82521],[-121.74282,36.82394],[-121.74284,36.82341],[-121.74251,36.82283],[-121.74255,36.82258],[-121.74305,36.82133],[-121.74349,36.82073],[-121.74417,36.8191],[-121.74518,36.81721],[-121.74485,36.81671],[-121.74483,36.81645],[-121.74533,36.81594],[-121.74505,36.81559],[-121.74496,36.81524],[-121.74517,36.81389],[-121.74422,36.81294],[-121.74424,36.81196],[-121.74406,36.81148],[-121.74293,36.81058],[-121.74214,36.80953],[-121.74237,36.80854],[-121.74228,36.80819],[-121.74193,36.80788],[-121.74114,36.80753],[-121.74021,36.80693],[-121.7394,36.80683],[-121.73888,36.8063],[-121.73874,36.80577],[-121.73885,36.8058],[-121.73921,36.80653],[-121.7395,36.80674],[-121.74027,36.80679],[-121.74119,36.80734],[-121.74173,36.80749],[-121.74275,36.80753],[-121.74315,36.80778],[-121.74309,36.80788],[-121.74273,36.80766],[-121.74248,36.8077],[-121.74258,36.80837],[-121.74241,36.80954],[-121.74328,36.80991],[-121.74391,36.81052],[-121.74495,36.81126],[-121.74504,36.81192],[-121.74461,36.81277],[-121.74492,36.81307],[-121.74541,36.81326],[-121.74568,36.81362],[-121.7459,36.81429],[-121.74578,36.81524],[-121.74617,36.81548],[-121.7467,36.81539],[-121.74912,36.81372],[-121.75104,36.81304],[-121.75246,36.81269],[-121.75257,36.81246],[-121.752,36.81237],[-121.75209,36.81218],[-121.75191,36.81193],[-121.75286,36.81227],[-121.75306,36.81263],[-121.75328,36.8126],[-121.75322,36.8109],[-121.75261,36.81077],[-121.7524,36.8105],[-121.75231,36.81009],[-121.7523,36.80928],[-121.75256,36.80878],[-121.75236,36.80857],[-121.7523,36.80632],[-121.75304,36.80543],[-121.75358,36.8052],[-121.75406,36.80542],[-121.75379,36.80569],[-121.75325,36.80576],[-121.75298,36.80609],[-121.75258,36.80626],[-121.75266,36.80697],[-121.75255,36.80824],[-121.75283,36.80857],[-121.75264,36.80928],[-121.75277,36.81052],[-121.75384,36.81075],[-121.75486,36.81076],[-121.75531,36.81092],[-121.75604,36.81155],[-121.75722,36.81199],[-121.75716,36.81218],[-121.75585,36.81193],[-121.75568,36.81174],[-121.7557,36.81158],[-121.75463,36.81102],[-121.75354,36.81103],[-121.75363,36.81258],[-121.75543,36.81251],[-121.75701,36.81261],[-121.75731,36.81251],[-121.75863,36.81267],[-121.75966,36.81255],[-121.76061,36.81229],[-121.76086,36.8121],[-121.76156,36.81207],[-121.76217,36.81184],[-121.76313,36.81175],[-121.76442,36.81198],[-121.76485,36.81224],[-121.76592,36.81335],[-121.76648,36.81463],[-121.7672,36.81475],[-121.76751,36.81468],[-121.76858,36.81389],[-121.76878,36.81351],[-121.76924,36.81309],[-121.76929,36.81265],[-121.76953,36.81234],[-121.77044,36.81204],[-121.77221,36.81174],[-121.77443,36.81215],[-121.77603,36.81131],[-121.77667,36.81117],[-121.78038,36.81106],[-121.78123,36.81075],[-121.78383,36.80888],[-121.78412,36.80884],[-121.78444,36.80931],[-121.78475,36.80929],[-121.78439,36.80829],[-121.78451,36.80706],[-121.78423,36.80593],[-121.78437,36.80441],[-121.78413,36.80274],[-121.78426,36.80192],[-121.78405,36.80174],[-121.78394,36.8014],[-121.7839,36.80006],[-121.78467,36.8],[-121.78482,36.80139],[-121.78522,36.8018],[-121.78544,36.80176],[-121.78619,36.80083],[-121.78631,36.80044],[-121.78677,36.79996],[-121.7871,36.79985],[-121.78724,36.79897],[-121.78693,36.7983],[-121.78703,36.79778],[-121.78751,36.7975],[-121.78782,36.7965]]]]}},{"type":"Feature","properties":{"key":"paloCorona","name":"Palo Corona Regional Park","step":"bigsur","kind":"land","wall":true,"source":"OSM relation 15100521","osmRelation":15100521},"geometry":{"type":"MultiPolygon","coordinates":[[[[-121.89523,36.53573],[-121.89219,36.52319],[-121.89323,36.52304],[-121.89116,36.51436],[-121.88928,36.51376],[-121.88868,36.51207],[-121.88371,36.50895],[-121.88092,36.50943],[-121.88011,36.50784],[-121.87635,36.50691],[-121.87544,36.50393],[-121.86633,36.49921],[-121.86208,36.49795],[-121.87011,36.494],[-121.87508,36.49812],[-121.87509,36.49719],[-121.86615,36.49005],[-121.87073,36.49002],[-121.87093,36.4791],[-121.86905,36.47547],[-121.86168,36.47569],[-121.86224,36.46143],[-121.86431,36.46064],[-121.86716,36.45646],[-121.87015,36.45488],[-121.87084,36.45365],[-121.87022,36.45102],[-121.86882,36.44915],[-121.86717,36.44906],[-121.86584,36.44746],[-121.86368,36.44702],[-121.87573,36.44694],[-121.87565,36.45056],[-121.88448,36.45067],[-121.8845,36.45413],[-121.87991,36.45405],[-121.8799,36.45765],[-121.89053,36.45785],[-121.88961,36.47201],[-121.88859,36.47202],[-121.88855,36.47508],[-121.8894,36.47517],[-121.89807,36.48267],[-121.89783,36.48891],[-121.89974,36.48998],[-121.9036,36.49441],[-121.90256,36.49737],[-121.88872,36.49727],[-121.88869,36.50085],[-121.88417,36.50083],[-121.88414,36.5044],[-121.88253,36.50433],[-121.89575,36.51564],[-121.89643,36.5126],[-121.89769,36.51305],[-121.89768,36.5118],[-121.90219,36.51185],[-121.90218,36.50822],[-121.90668,36.50828],[-121.90662,36.51654],[-121.91073,36.52018],[-121.91887,36.52181],[-121.92186,36.51999],[-121.92292,36.52059],[-121.92326,36.52184],[-121.92388,36.52162],[-121.92358,36.52225],[-121.92215,36.52224],[-121.92107,36.52145],[-121.92029,36.52302],[-121.92343,36.52404],[-121.9241,36.52274],[-121.92389,36.52329],[-121.92494,36.52373],[-121.91582,36.53241],[-121.91191,36.53284],[-121.90859,36.53116],[-121.90717,36.53169],[-121.90501,36.53111],[-121.90121,36.53418],[-121.89967,36.53371],[-121.90002,36.53624],[-121.89523,36.53573]]]]}},{"type":"Feature","properties":{"key":"santaLucia","name":"Santa Lucia Preserve","step":"santalucia","kind":"land","wall":true,"source":"CCED OBJECTID 8029 (Santa Lucia Conservancy)","ccedObjectId":8029,"note":"public access: closed. Drawn as the outer extent: CCED records 15078 acres of easement once the interior homesite exclusions are subtracted, and those are about an acre each \u2014 two pixels at this map's scale."},"geometry":{"type":"MultiPolygon","coordinates":[[[[-121.86102,36.48349],[-121.8634,36.486],[-121.86261,36.48659],[-121.86297,36.48747],[-121.86426,36.48803],[-121.86315,36.48868],[-121.86167,36.48784],[-121.86126,36.49033],[-121.85963,36.49145],[-121.86038,36.49108],[-121.86056,36.49136],[-121.85954,36.49164],[-121.85881,36.49101],[-121.85825,36.49136],[-121.86065,36.4921],[-121.85769,36.49238],[-121.85788,36.49114],[-121.85736,36.4913],[-121.85699,36.4927],[-121.85813,36.49385],[-121.85751,36.4947],[-121.85945,36.49534],[-121.85843,36.49571],[-121.8588,36.49655],[-121.86038,36.49673],[-121.86183,36.49808],[-121.86575,36.4996],[-121.86649,36.49932],[-121.8701,36.50224],[-121.87288,36.50345],[-121.87264,36.50257],[-121.87516,36.50389],[-121.87631,36.50695],[-121.88001,36.50789],[-121.88087,36.50941],[-121.88374,36.50896],[-121.88864,36.51202],[-121.88922,36.51368],[-121.89102,36.51425],[-121.89329,36.52302],[-121.8922,36.52318],[-121.89285,36.52592],[-121.89012,36.52743],[-121.88749,36.52514],[-121.88779,36.52466],[-121.88619,36.52462],[-121.88102,36.52173],[-121.87374,36.51923],[-121.87354,36.51766],[-121.87334,36.51928],[-121.86889,36.52395],[-121.86891,36.52599],[-121.86815,36.52618],[-121.86806,36.52273],[-121.86778,36.52525],[-121.8663,36.52474],[-121.86732,36.52708],[-121.86575,36.52692],[-121.86278,36.52405],[-121.86093,36.52321],[-121.86297,36.52386],[-121.86269,36.52349],[-121.86038,36.52262],[-121.85117,36.52361],[-121.85207,36.51553],[-121.84908,36.51584],[-121.84834,36.51534],[-121.84778,36.5184],[-121.84649,36.51942],[-121.84121,36.5194],[-121.84408,36.51923],[-121.84713,36.51664],[-121.84797,36.51395],[-121.84658,36.51368],[-121.84695,36.51488],[-121.84602,36.51433],[-121.84408,36.51497],[-121.84269,36.5134],[-121.84213,36.51337],[-121.84334,36.5146],[-121.84232,36.51571],[-121.84297,36.51701],[-121.84676,36.51571],[-121.84695,36.51507],[-121.84686,36.51636],[-121.84362,36.51886],[-121.8376,36.51923],[-121.83926,36.51775],[-121.84056,36.51803],[-121.84047,36.51877],[-121.84065,36.51803],[-121.84176,36.51794],[-121.84028,36.51766],[-121.83954,36.51636],[-121.8401,36.51336],[-121.83945,36.51335],[-121.83926,36.51423],[-121.83584,36.51433],[-121.83556,36.51395],[-121.83723,36.51368],[-121.83917,36.51405],[-121.83926,36.5134],[-121.8351,36.51377],[-121.83491,36.51331],[-121.83417,36.5133],[-121.83501,36.51423],[-121.83491,36.51479],[-121.83436,36.51479],[-121.83463,36.51433],[-121.83411,36.51414],[-121.83409,36.50848],[-121.82086,36.50863],[-121.81606,36.51212],[-121.81164,36.51195],[-121.81168,36.50435],[-121.80984,36.5044],[-121.80991,36.5021],[-121.8107,36.50192],[-121.81019,36.50164],[-121.81158,36.4996],[-121.81186,36.49544],[-121.8126,36.49368],[-121.81342,36.4934],[-121.81328,36.49238],[-121.81204,36.4922],[-121.81158,36.48923],[-121.81056,36.48923],[-121.80982,36.48812],[-121.81139,36.48516],[-121.81075,36.48562],[-121.80982,36.48525],[-121.81001,36.48627],[-121.80889,36.48683],[-121.80602,36.48525],[-121.80713,36.48664],[-121.80889,36.48729],[-121.80954,36.48673],[-121.80963,36.48757],[-121.80852,36.48775],[-121.80639,36.48655],[-121.80649,36.48729],[-121.80899,36.48803],[-121.8101,36.48923],[-121.81047,36.49136],[-121.80825,36.48979],[-121.80825,36.48895],[-121.80621,36.48951],[-121.80297,36.48849],[-121.80038,36.48849],[-121.8001,36.48877],[-121.79936,36.4872],[-121.79806,36.4871],[-121.7976,36.48775],[-121.7976,36.48868],[-121.79889,36.48823],[-121.79834,36.48914],[-121.79871,36.48868],[-121.79917,36.48895],[-121.80241,36.48877],[-121.80778,36.49025],[-121.80926,36.49183],[-121.81084,36.4921],[-121.81121,36.49127],[-121.81135,36.4924],[-121.81056,36.49257],[-121.80658,36.49155],[-121.8076,36.49247],[-121.81065,36.49303],[-121.8113,36.49414],[-121.81019,36.49895],[-121.8076,36.49914],[-121.80899,36.4996],[-121.80908,36.50127],[-121.80973,36.50007],[-121.8101,36.50007],[-121.80936,36.50275],[-121.80834,36.50247],[-121.8088,36.50192],[-121.80797,36.50145],[-121.80704,36.50145],[-121.80621,36.50247],[-121.80584,36.50155],[-121.80519,36.50266],[-121.80436,36.5021],[-121.80482,36.50155],[-121.80278,36.50136],[-121.80204,36.50303],[-121.80273,36.50455],[-121.80047,36.50456],[-121.79954,36.50368],[-121.79991,36.50247],[-121.79936,36.5034],[-121.79899,36.5021],[-121.79833,36.50275],[-121.79839,36.49517],[-121.79612,36.4946],[-121.79963,36.49442],[-121.79862,36.49377],[-121.79834,36.49433],[-121.79797,36.4934],[-121.79751,36.49386],[-121.79741,36.49294],[-121.79917,36.49349],[-121.79862,36.49284],[-121.79612,36.49229],[-121.79602,36.49173],[-121.79547,36.49294],[-121.79454,36.49303],[-121.79565,36.49377],[-121.795,36.49442],[-121.78346,36.49186],[-121.78283,36.48747],[-121.78389,36.48794],[-121.78445,36.48683],[-121.7828,36.48729],[-121.78252,36.48534],[-121.78269,36.48544],[-121.78306,36.48534],[-121.7825,36.48516],[-121.78269,36.48294],[-121.78219,36.48303],[-121.78188,36.4809],[-121.78241,36.48164],[-121.7826,36.48173],[-121.78288,36.48164],[-121.78179,36.48025],[-121.78117,36.47599],[-121.78325,36.4771],[-121.78417,36.47692],[-121.78426,36.47581],[-121.78602,36.4746],[-121.78658,36.47136],[-121.78852,36.4709],[-121.78899,36.47144],[-121.78889,36.46794],[-121.79075,36.46636],[-121.79065,36.46571],[-121.79121,36.46599],[-121.79065,36.46525],[-121.79176,36.46433],[-121.79167,36.46283],[-121.79001,36.46645],[-121.78797,36.46656],[-121.78871,36.46757],[-121.78834,36.46997],[-121.78565,36.47192],[-121.78556,36.4746],[-121.78417,36.47525],[-121.78352,36.47683],[-121.78116,36.4759],[-121.78103,36.47503],[-121.7795,36.47504],[-121.77908,36.47192],[-121.78167,36.47303],[-121.78213,36.47284],[-121.78121,36.47183],[-121.7801,36.47173],[-121.78028,36.47062],[-121.77908,36.4709],[-121.78001,36.47007],[-121.77908,36.46979],[-121.78139,36.47007],[-121.78056,36.46933],[-121.78417,36.4697],[-121.78565,36.46794],[-121.78676,36.4684],[-121.78621,36.4671],[-121.7851,36.4671],[-121.7851,36.46803],[-121.78436,36.46812],[-121.78482,36.46849],[-121.78352,36.46886],[-121.78352,36.46821],[-121.78297,36.46831],[-121.78278,36.46942],[-121.7813,36.46905],[-121.78112,36.46817],[-121.77908,36.46851],[-121.77954,36.46895],[-121.77676,36.46858],[-121.77788,36.46963],[-121.77397,36.46957],[-121.77419,36.4751],[-121.77025,36.47502],[-121.77079,36.47121],[-121.75594,36.46951],[-121.75608,36.46771],[-121.76505,36.46782],[-121.76509,36.46636],[-121.76602,36.46599],[-121.76511,36.46599],[-121.76519,36.46534],[-121.76908,36.46479],[-121.76513,36.46516],[-121.76517,36.46395],[-121.7663,36.46433],[-121.76602,36.46294],[-121.76713,36.46303],[-121.76686,36.46358],[-121.76751,36.46377],[-121.76732,36.46247],[-121.76788,36.4622],[-121.76751,36.46257],[-121.76788,36.46284],[-121.76917,36.46192],[-121.76676,36.46136],[-121.76667,36.46062],[-121.76639,36.46155],[-121.76525,36.46155],[-121.76528,36.46054],[-121.76251,36.46052],[-121.76251,36.46007],[-121.76241,36.46051],[-121.74757,36.46034],[-121.74737,36.45812],[-121.74778,36.45831],[-121.74788,36.45784],[-121.74908,36.45729],[-121.75028,36.4559],[-121.74735,36.45794],[-121.74658,36.44951],[-121.74862,36.44868],[-121.7476,36.44868],[-121.74751,36.44803],[-121.74654,36.44914],[-121.7462,36.44548],[-121.74182,36.44557],[-121.74241,36.44209],[-121.72941,36.44229],[-121.73076,36.43518],[-121.73968,36.43519],[-121.73993,36.4316],[-121.74421,36.43162],[-121.7445,36.42488],[-121.74556,36.42562],[-121.7476,36.42507],[-121.74945,36.42562],[-121.74936,36.42618],[-121.75241,36.42608],[-121.7538,36.42673],[-121.75352,36.42729],[-121.75445,36.42701],[-121.75584,36.42794],[-121.75639,36.42905],[-121.75797,36.42914],[-121.7588,36.43016],[-121.76241,36.43136],[-121.76176,36.4322],[-121.7638,36.43368],[-121.76926,36.43432],[-121.76078,36.43017],[-121.75741,36.4279],[-121.75797,36.42701],[-121.75593,36.42655],[-121.75565,36.42562],[-121.74741,36.42488],[-121.74556,36.42544],[-121.74452,36.42441],[-121.75319,36.42454],[-121.75326,36.42155],[-121.75769,36.42183],[-121.76056,36.42108],[-121.76121,36.42136],[-121.76065,36.42192],[-121.76176,36.42173],[-121.76186,36.42247],[-121.76288,36.42173],[-121.76362,36.42275],[-121.76602,36.4221],[-121.76788,36.42275],[-121.76862,36.42247],[-121.76834,36.42201],[-121.77084,36.42229],[-121.77195,36.42116],[-121.77173,36.42488],[-121.77112,36.42405],[-121.77102,36.42451],[-121.77195,36.42525],[-121.77382,36.425],[-121.77325,36.41995],[-121.78067,36.42525],[-121.78019,36.42553],[-121.78268,36.42669],[-121.78297,36.42294],[-121.78517,36.42517],[-121.78612,36.42529],[-121.78667,36.42654],[-121.78732,36.42488],[-121.78973,36.42349],[-121.78593,36.42497],[-121.78426,36.42349],[-121.78426,36.42266],[-121.78334,36.42266],[-121.7838,36.42173],[-121.7838,36.4222],[-121.78426,36.42171],[-121.79141,36.42179],[-121.79135,36.42479],[-121.79056,36.4247],[-121.79135,36.42497],[-121.79056,36.42562],[-121.79133,36.4259],[-121.79127,36.42886],[-121.79556,36.4289],[-121.79566,36.42539],[-121.80195,36.42562],[-121.80139,36.42775],[-121.80223,36.42757],[-121.80241,36.42546],[-121.80371,36.4259],[-121.80417,36.4271],[-121.80473,36.42548],[-121.80575,36.42549],[-121.80547,36.42627],[-121.80612,36.42549],[-121.80788,36.42551],[-121.80769,36.42664],[-121.80852,36.42553],[-121.81019,36.42553],[-121.8101,36.42701],[-121.81047,36.42608],[-121.81065,36.42692],[-121.8113,36.42627],[-121.81056,36.42553],[-121.81251,36.42555],[-121.81246,36.42988],[-121.81139,36.4297],[-121.81121,36.43044],[-121.81186,36.43044],[-121.81139,36.43108],[-121.81223,36.43099],[-121.81244,36.43173],[-121.81149,36.43127],[-121.80963,36.43257],[-121.80815,36.4321],[-121.80788,36.43257],[-121.80686,36.43255],[-121.8076,36.43247],[-121.80751,36.43183],[-121.80389,36.43238],[-121.80334,36.43173],[-121.80436,36.43173],[-121.80371,36.43155],[-121.80436,36.43136],[-121.80436,36.43118],[-121.80315,36.4309],[-121.80251,36.43247],[-121.80047,36.43249],[-121.80028,36.43173],[-121.79871,36.43312],[-121.79621,36.43155],[-121.79473,36.4321],[-121.79825,36.4334],[-121.79973,36.43321],[-121.79954,36.43636],[-121.80437,36.43617],[-121.80269,36.43803],[-121.79857,36.43877],[-121.79936,36.43933],[-121.80075,36.43849],[-121.80297,36.43831],[-121.80435,36.43692],[-121.8043,36.4398],[-121.8088,36.44062],[-121.81047,36.43999],[-121.81899,36.44025],[-121.82028,36.44155],[-121.81991,36.44303],[-121.81889,36.44321],[-121.81899,36.44368],[-121.81982,36.4434],[-121.81908,36.44414],[-121.81945,36.44482],[-121.82075,36.44201],[-121.81991,36.44099],[-121.82038,36.44029],[-121.82917,36.4402],[-121.829,36.43775],[-121.83223,36.43775],[-121.83102,36.43599],[-121.83065,36.4371],[-121.82899,36.43757],[-121.82865,36.43274],[-121.83176,36.43321],[-121.83204,36.43265],[-121.83473,36.43257],[-121.83501,36.43321],[-121.83538,36.43256],[-121.83688,36.43251],[-121.83723,36.44013],[-121.83334,36.44016],[-121.83251,36.43905],[-121.83325,36.44044],[-121.83326,36.44349],[-121.82917,36.44321],[-121.8251,36.44544],[-121.8238,36.44534],[-121.82362,36.4459],[-121.8226,36.4459],[-121.82176,36.44812],[-121.82176,36.44725],[-121.82076,36.44794],[-121.82101,36.44858],[-121.82232,36.44803],[-121.82288,36.44701],[-121.82371,36.4472],[-121.82426,36.44858],[-121.82389,36.44673],[-121.82288,36.44683],[-121.82297,36.44655],[-121.82454,36.44645],[-121.82519,36.44553],[-121.8301,36.44405],[-121.83167,36.44451],[-121.83436,36.44794],[-121.83399,36.44705],[-121.84679,36.44703],[-121.84667,36.44951],[-121.84556,36.44933],[-121.84371,36.45044],[-121.84621,36.4497],[-121.84639,36.45025],[-121.84676,36.4497],[-121.84715,36.45012],[-121.84704,36.46312],[-121.84964,36.46442],[-121.84965,36.46824],[-121.8513,36.46821],[-121.85093,36.47071],[-121.85186,36.47136],[-121.85186,36.4721],[-121.85288,36.47312],[-121.85288,36.47368],[-121.85195,36.47294],[-121.8513,36.47303],[-121.85213,36.47331],[-121.85251,36.4747],[-121.85325,36.47479],[-121.85241,36.47414],[-121.85297,36.47377],[-121.85482,36.47544],[-121.85612,36.47942],[-121.85463,36.4797],[-121.85278,36.4784],[-121.85269,36.47636],[-121.85334,36.47664],[-121.85343,36.47645],[-121.85047,36.47331],[-121.8501,36.47414],[-121.85176,36.47549],[-121.84889,36.47542],[-121.84806,36.47486],[-121.84674,36.47575],[-121.84917,36.47841],[-121.85108,36.47937],[-121.85283,36.48234],[-121.8547,36.48407],[-121.86042,36.48738],[-121.86176,36.48738],[-121.86121,36.48655],[-121.86235,36.48656],[-121.86258,36.48633],[-121.86258,36.48581],[-121.86149,36.48645],[-121.85843,36.48488],[-121.85667,36.4847],[-121.85417,36.48303],[-121.85223,36.47997],[-121.85343,36.48145],[-121.85667,36.4834],[-121.85593,36.4821],[-121.8538,36.48127],[-121.85112,36.47831],[-121.84936,36.47803],[-121.84908,36.47652],[-121.84982,36.47711],[-121.84945,36.47784],[-121.85038,36.47757],[-121.85281,36.47952],[-121.85315,36.47886],[-121.85417,36.48016],[-121.85565,36.47997],[-121.85751,36.48108],[-121.85825,36.48284],[-121.86102,36.48349]]]]}}]}